STARLINK-33776          
1 63851U 25093R   26068.42289423  .00039874  00000+0  14490-2 0  9998
2 63851  43.0043  79.2097 0002059 260.6442  99.4177 15.27618549 47920
COSMOS 2588             
1 64095U 25109A   26068.81179522  .00009169  00000+0  32611-3 0  9998
2 64095  72.9704  73.5401 0005019 308.6780  51.3966 15.29122656 44425
